start=new Date('2021-12-08T00:00:00.000Z').valueOf();
sats=[{"RCS_SIZE":"LARGE","DECAY_DATE":null,"SITE":"AFETR","COUNTRY_CODE":"US","REF_FRAME":"TEME","MEAN_ELEMENT_THEORY":"SGP4","MEAN_ANOMALY":"297.7015","OBJECT_ID":"2021-044K","OBJECT_NAME":"STARLINK-2691","EPOCH":"2021-12-07T20:22:05.722176","TIME_SYSTEM":"UTC","REV_AT_EPOCH":"2966","RA_OF_ASC_NODE":"252.5913","EPHEMERIS_TYPE":"0","MEAN_MOTION_DDOT":"0.0000000000000","APOAPSIS":"548.831","TLE_LINE2":"2 48647  53.0556 252.5913 0002330  62.4210 297.7015 15.06398794 29661","CENTER_NAME":"EARTH","FILE":"3235143","LAUNCH_DATE":"2021-05-26","OBJECT_TYPE":"PAYLOAD","GP_ID":"191300419","ELEMENT_SET_NO":"999","ECCENTRICITY":"0.00023300","TLE_LINE1":"1 48647U 21044K   21341.84867734  .00000438  00000-0  48298-4 0  9998","SEMIMAJOR_AXIS":"6925.352","NORAD_CAT_ID":"48647","PERIAPSIS":"545.604","MEAN_MOTION_DOT":"0.00000438","CLASSIFICATION_TYPE":"U","PERIOD":"95.592","INCLINATION":"53.0556","MEAN_MOTION":"15.06398794","ARG_OF_PERICENTER":"62.4210","BSTAR":"0.00004829800000"},{"MEAN_MOTION_DDOT":"0.0000000000000","EPHEMERIS_TYPE":"0","FILE":"3235143","APOAPSIS":"548.882","TLE_LINE2":"2 48648  53.0556 252.8896 0002381  64.6571 295.4665 15.06393536 29659","CENTER_NAME":"EARTH","LAUNCH_DATE":"2021-05-26","SITE":"AFETR","DECAY_DATE":null,"RCS_SIZE":"LARGE","REF_FRAME":"TEME","MEAN_ELEMENT_THEORY":"SGP4","COUNTRY_CODE":"US","OBJECT_NAME":"STARLINK-2521","MEAN_ANOMALY":"295.4665","OBJECT_ID":"2021-044L","TIME_SYSTEM":"UTC","REV_AT_EPOCH":"2965","RA_OF_ASC_NODE":"252.8896","EPOCH":"2021-12-07T18:45:12.007008","PERIAPSIS":"545.584","MEAN_MOTION_DOT":"-0.00000601","PERIOD":"95.593","CLASSIFICATION_TYPE":"U","MEAN_MOTION":"15.06393536","INCLINATION":"53.0556","BSTAR":"-0.00002139700000","ARG_OF_PERICENTER":"64.6571","OBJECT_TYPE":"PAYLOAD","GP_ID":"191300930","ELEMENT_SET_NO":"999","NORAD_CAT_ID":"48648","ECCENTRICITY":"0.00023810","TLE_LINE1":"1 48648U 21044L   21341.78138897 -.00000601  00000-0 -21397-4 0  9998","SEMIMAJOR_AXIS":"6925.368"},{"FILE":"3235143","TLE_LINE2":"2 48649  53.0528 252.9011 0002413  59.5743 300.5484 15.06405819 29643","APOAPSIS":"548.867","CENTER_NAME":"EARTH","LAUNCH_DATE":"2021-05-26","MEAN_MOTION_DDOT":"0.0000000000000","EPHEMERIS_TYPE":"0","OBJECT_NAME":"STARLINK-2673","MEAN_ANOMALY":"300.5484","OBJECT_ID":"2021-044M","REV_AT_EPOCH":"2964","TIME_SYSTEM":"UTC","RA_OF_ASC_NODE":"252.9011","EPOCH":"2021-12-07T18:41:15.300384","SITE":"AFETR","DECAY_DATE":null,"RCS_SIZE":"LARGE","REF_FRAME":"TEME","MEAN_ELEMENT_THEORY":"SGP4","COUNTRY_CODE":"US","MEAN_MOTION":"15.06405819","INCLINATION":"53.0528","BSTAR":"0.00010965000000","ARG_OF_PERICENTER":"59.5743","PERIAPSIS":"545.525","MEAN_MOTION_DOT":"0.00001352","CLASSIFICATION_TYPE":"U","PERIOD":"95.592","GP_ID":"191301097","ELEMENT_SET_NO":"999","NORAD_CAT_ID":"48649","ECCENTRICITY":"0.00024130","TLE_LINE1":"1 48649U 21044M   21341.77864931  .00001352  00000-0  10965-3 0  9993","SEMIMAJOR_AXIS":"6925.331","OBJECT_TYPE":"PAYLOAD"},{"OBJECT_ID":"2021-044N","MEAN_ANOMALY":"295.8821","OBJECT_NAME":"STARLINK-2672","EPOCH":"2021-12-07T04:16:05.255040","RA_OF_ASC_NODE":"255.5998","TIME_SYSTEM":"UTC","REV_AT_EPOCH":"2955","RCS_SIZE":"LARGE","DECAY_DATE":null,"SITE":"AFETR","COUNTRY_CODE":"US","MEAN_ELEMENT_THEORY":"SGP4","REF_FRAME":"TEME","CENTER_NAME":"EARTH","APOAPSIS":"548.933","TLE_LINE2":"2 48650  53.0557 255.5998 0002449  64.2420 295.8821 15.06392511 29559","FILE":"3234816","LAUNCH_DATE":"2021-05-26","EPHEMERIS_TYPE":"0","MEAN_MOTION_DDOT":"0.0000000000000","ELEMENT_SET_NO":"999","GP_ID":"191273302","SEMIMAJOR_AXIS":"6925.372","ECCENTRICITY":"0.00024490","TLE_LINE1":"1 48650U 21044N   21341.17783860 -.00000016  00000-0  17832-4 0  9998","NORAD_CAT_ID":"48650","OBJECT_TYPE":"PAYLOAD","INCLINATION":"53.0557","MEAN_MOTION":"15.06392511","ARG_OF_PERICENTER":"64.2420","BSTAR":"0.00001783200000","PERIAPSIS":"545.540","CLASSIFICATION_TYPE":"U","PERIOD":"95.593","MEAN_MOTION_DOT":"-0.00000016"},{"NORAD_CAT_ID":"48651","ECCENTRICITY":"0.00019620","TLE_LINE1":"1 48651U 21044P   21341.17414591 -.00000337  00000-0 -37083-5 0  9999","SEMIMAJOR_AXIS":"6925.349","GP_ID":"191272205","ELEMENT_SET_NO":"999","OBJECT_TYPE":"PAYLOAD","BSTAR":"-0.00000370830000","ARG_OF_PERICENTER":"63.9056","MEAN_MOTION":"15.06399768","INCLINATION":"53.0545","MEAN_MOTION_DOT":"-0.00000337","PERIOD":"95.592","CLASSIFICATION_TYPE":"U","PERIAPSIS":"545.856","TIME_SYSTEM":"UTC","REV_AT_EPOCH":"2955","RA_OF_ASC_NODE":"255.6070","EPOCH":"2021-12-07T04:10:46.206624","OBJECT_NAME":"STARLINK-2731","MEAN_ANOMALY":"296.2135","OBJECT_ID":"2021-044P","REF_FRAME":"TEME","MEAN_ELEMENT_THEORY":"SGP4","COUNTRY_CODE":"US","SITE":"AFETR","RCS_SIZE":"LARGE","DECAY_DATE":null,"LAUNCH_DATE":"2021-05-26","FILE":"3234816","TLE_LINE2":"2 48651  53.0545 255.6070 0001962  63.9056 296.2135 15.06399768 29553","APOAPSIS":"548.573","CENTER_NAME":"EARTH","MEAN_MOTION_DDOT":"0.0000000000000","EPHEMERIS_TYPE":"0"},{"NORAD_CAT_ID":"48652","TLE_LINE1":"1 48652U 21044Q   21341.90027091  .00001562  00000-0  12379-3 0  9994","ECCENTRICITY":"0.00023560","SEMIMAJOR_AXIS":"6925.351","GP_ID":"191300589","ELEMENT_SET_NO":"999","OBJECT_TYPE":"PAYLOAD","BSTAR":"0.00012379000000","ARG_OF_PERICENTER":"60.2738","MEAN_MOTION":"15.06399284","INCLINATION":"53.0557","MEAN_MOTION_DOT":"0.00001562","CLASSIFICATION_TYPE":"U","PERIOD":"95.592","PERIAPSIS":"545.584","TIME_SYSTEM":"UTC","REV_AT_EPOCH":"2966","RA_OF_ASC_NODE":"252.3522","EPOCH":"2021-12-07T21:36:23.406624","OBJECT_NAME":"STARLINK-2727","MEAN_ANOMALY":"299.8485","OBJECT_ID":"2021-044Q","REF_FRAME":"TEME","MEAN_ELEMENT_THEORY":"SGP4","COUNTRY_CODE":"US","SITE":"AFETR","RCS_SIZE":"LARGE","DECAY_DATE":null,"LAUNCH_DATE":"2021-05-26","FILE":"3235143","TLE_LINE2":"2 48652  53.0557 252.3522 0002356  60.2738 299.8485 15.06399284 29660","APOAPSIS":"548.847","CENTER_NAME":"EARTH","MEAN_MOTION_DDOT":"0.0000000000000","EPHEMERIS_TYPE":"0"},{"FILE":"3235143","TLE_LINE2":"2 48653  53.0556 252.9655 0002390  60.1264 299.9963 15.06395359 29643","APOAPSIS":"548.883","CENTER_NAME":"EARTH","LAUNCH_DATE":"2021-05-26","MEAN_MOTION_DDOT":"0.0000000000000","EPHEMERIS_TYPE":"0","OBJECT_NAME":"STARLINK-2720","MEAN_ANOMALY":"299.9963","OBJECT_ID":"2021-044R","REV_AT_EPOCH":"2964","TIME_SYSTEM":"UTC","RA_OF_ASC_NODE":"252.9655","EPOCH":"2021-12-07T18:20:01.014432","SITE":"AFETR","DECAY_DATE":null,"RCS_SIZE":"LARGE","REF_FRAME":"TEME","MEAN_ELEMENT_THEORY":"SGP4","COUNTRY_CODE":"US","MEAN_MOTION":"15.06395359","INCLINATION":"53.0556","BSTAR":"-0.00000044705000","ARG_OF_PERICENTER":"60.1264","PERIAPSIS":"545.573","MEAN_MOTION_DOT":"-0.00000289","PERIOD":"95.592","CLASSIFICATION_TYPE":"U","GP_ID":"191301433","ELEMENT_SET_NO":"999","NORAD_CAT_ID":"48653","ECCENTRICITY":"0.00023900","TLE_LINE1":"1 48653U 21044R   21341.76390063 -.00000289  00000-0 -44705-6 0  9999","SEMIMAJOR_AXIS":"6925.363","OBJECT_TYPE":"PAYLOAD"},{"OBJECT_TYPE":"PAYLOAD","GP_ID":"191301267","ELEMENT_SET_NO":"999","NORAD_CAT_ID":"48654","TLE_LINE1":"1 48654U 21044S   21341.76021377  .00000485  00000-0  51475-4 0  9995","ECCENTRICITY":"0.00021950","SEMIMAJOR_AXIS":"6925.358","PERIAPSIS":"545.703","MEAN_MOTION_DOT":"0.00000485","PERIOD":"95.592","CLASSIFICATION_TYPE":"U","MEAN_MOTION":"15.06396936","INCLINATION":"53.0545","BSTAR":"0.00005147500000","ARG_OF_PERICENTER":"61.2121","SITE":"AFETR","DECAY_DATE":null,"RCS_SIZE":"LARGE","REF_FRAME":"TEME","MEAN_ELEMENT_THEORY":"SGP4","COUNTRY_CODE":"US","OBJECT_NAME":"STARLINK-2651","MEAN_ANOMALY":"298.9088","OBJECT_ID":"2021-044S","REV_AT_EPOCH":"2964","TIME_SYSTEM":"UTC","RA_OF_ASC_NODE":"252.9944","EPOCH":"2021-12-07T18:14:42.469728","MEAN_MOTION_DDOT":"0.0000000000000","EPHEMERIS_TYPE":"0","FILE":"3235143","TLE_LINE2":"2 48654  53.0545 252.9944 0002195  61.2121 298.9088 15.06396936 29649","APOAPSIS":"548.743","CENTER_NAME":"EARTH","LAUNCH_DATE":"2021-05-26"},{"MEAN_MOTION_DOT":"-0.00000391","CLASSIFICATION_TYPE":"U","PERIOD":"95.593","PERIAPSIS":"545.760","ARG_OF_PERICENTER":"59.8716","BSTAR":"-0.00000731490000","INCLINATION":"53.0556","MEAN_MOTION":"15.06389855","OBJECT_TYPE":"PAYLOAD","TLE_LINE1":"1 48655U 21044T   21341.49114560 -.00000391  00000-0 -73149-5 0  9994","ECCENTRICITY":"0.00021440","SEMIMAJOR_AXIS":"6925.380","NORAD_CAT_ID":"48655","GP_ID":"191274340","ELEMENT_SET_NO":"999","EPHEMERIS_TYPE":"0","MEAN_MOTION_DDOT":"0.0000000000000","LAUNCH_DATE":"2021-05-26","TLE_LINE2":"2 48655  53.0556 254.1962 0002144  59.8716 300.2486 15.06389855 30444","APOAPSIS":"548.729","CENTER_NAME":"EARTH","FILE":"3234898","COUNTRY_CODE":"US","REF_FRAME":"TEME","MEAN_ELEMENT_THEORY":"SGP4","RCS_SIZE":"LARGE","DECAY_DATE":null,"SITE":"AFETR","EPOCH":"2021-12-07T11:47:14.979840","TIME_SYSTEM":"UTC","REV_AT_EPOCH":"3044","RA_OF_ASC_NODE":"254.1962","MEAN_ANOMALY":"300.2486","OBJECT_ID":"2021-044T","OBJECT_NAME":"STARLINK-2657"},{"PERIAPSIS":"545.712","PERIOD":"95.592","CLASSIFICATION_TYPE":"U","MEAN_MOTION_DOT":"0.00000030","INCLINATION":"53.0555","MEAN_MOTION":"15.06396414","ARG_OF_PERICENTER":"66.3664","BSTAR":"0.00002094700000","OBJECT_TYPE":"PAYLOAD","ELEMENT_SET_NO":"999","GP_ID":"191272677","SEMIMAJOR_AXIS":"6925.360","ECCENTRICITY":"0.00021840","TLE_LINE1":"1 48656U 21044U   21341.48745681  .00000030  00000-0  20947-4 0  9993","NORAD_CAT_ID":"48656","EPHEMERIS_TYPE":"0","MEAN_MOTION_DDOT":"0.0000000000000","CENTER_NAME":"EARTH","APOAPSIS":"548.737","TLE_LINE2":"2 48656  53.0555 254.2073 0002184  66.3664 293.7554 15.06396414 29604","FILE":"3234816","LAUNCH_DATE":"2021-05-26","RCS_SIZE":"LARGE","DECAY_DATE":null,"SITE":"AFETR","COUNTRY_CODE":"US","MEAN_ELEMENT_THEORY":"SGP4","REF_FRAME":"TEME","OBJECT_ID":"2021-044U","MEAN_ANOMALY":"293.7554","OBJECT_NAME":"STARLINK-2701","EPOCH":"2021-12-07T11:41:56.268384","RA_OF_ASC_NODE":"254.2073","TIME_SYSTEM":"UTC","REV_AT_EPOCH":"2960"}];
